505P/Palomar,e,11.3883,111.9417,143.9488,4.113308,0.1181455,0.31074548,357.6798,12/29.0/2025,2000,g 14.9,4.0
# From MPEC 2025-W75
506P/WISE-LINEAR,e,13.6561,325.6086,354.6260,5.586200,0.0746499,0.48222665,63.8616,12/29.0/2025,2000,g 12.7,4.0
# From MPEC 2025-W75
507P/Lemmon,e,17.0850,233.0994,107.7621,6.209694,0.0636940,0.56844103,71.6265,12/29.0/2025,2000,g 12.6,4.0
# From MPEC 2025-W75
508P/McNaught,e,31.7331,268.8294,338.8745,3.574808,0.1458227,0.56941924,24.8999,12/29.0/2025,2000,g 16.5,4.0
# From MPEC 2025-YF1
509P/Catalina,e,8.6036,275.2094,180.0867,7.043113,0.0527299,0.47566729,355.7429,12/29.0/2025,2000,g 10.0,4.0
# From MPEC 2025-W75
510P/Boattini,e,8.2274,280.6666,86.6882,6.482813,0.0597116,0.24798291,344.8191,12/29.0/2025,2000,g  9.5,4.0
# From MPEC 2025-X35
511P/PANSTARRS,e,14.7853,271.0273,81.2308,3.010127,0.1887238,0.23723255,32.2625,12/29.0/2025,2000,g 17.1,4.0
# From MPEC 2025-W75
512P/PANSTARRS,e,12.5688,73.7427,308.7108,5.697954,0.0724646,0.15733427,335.2945,12/29.0/2025,2000,g 10.0,4.0
# From MPEC 2025-YF1
513P/Broughton,e,21.3857,56.9970,304.8697,7.255045,0.0504364,0.55152781,9.9973,12/29.0/2025,2000,g 11.0,4.0
# From MPC107687
1I/`Oumuamua,h,09/09.4886/2017,122.6778,24.5997,241.6845,1.199252,0.255240,2000,23.0,2.0
# From MPEC 2025-R69
2I/Borisov,h,12/09.0572/2019,44.2624,307.8024,209.2911,3.345952,1.997724,2000,11.0,4.0
# From MPEC 2025-YF1
3I/ATLAS,h,10/29.4827/2025,175.1129,322.1547,128.0071,6.139686,1.356487,2000,11.8,4.0
